[{"OBJECT_NAME":"STARLINK-30402","OBJECT_ID":"2023-138V","EPOCH":"2026-03-09T22:00:01.999584","MEAN_MOTION":15.25118124,"ECCENTRICITY":0.00016397,"INCLINATION":42.9996,"RA_OF_ASC_NODE":232.7467,"ARG_OF_PERICENTER":315.8136,"MEAN_ANOMALY":84.1579,"EPHEMERIS_TYPE":0,"CLASSIFICATION_TYPE":"U","NORAD_CAT_ID":57827,"ELEMENT_SET_NO":999,"REV_AT_EPOCH":572,"BSTAR":0.035382216,"MEAN_MOTION_DOT":0.00981389,"MEAN_MOTION_DDOT":0},{"OBJECT_NAME":"YAM-6","OBJECT_ID":"2024-043AE","EPOCH":"2026-03-09T22:02:57.551424","MEAN_MOTION":15.35277504,"ECCENTRICITY":0.00081711,"INCLINATION":97.5396,"RA_OF_ASC_NODE":207.5012,"ARG_OF_PERICENTER":216.2976,"MEAN_ANOMALY":143.7714,"EPHEMERIS_TYPE":0,"CLASSIFICATION_TYPE":"U","NORAD_CAT_ID":59126,"ELEMENT_SET_NO":999,"REV_AT_EPOCH":11207,"BSTAR":0.00038647304,"MEAN_MOTION_DOT":0.00013176,"MEAN_MOTION_DDOT":0}]
